1 08820U 76039A   03049.72972335  .00000006  00000-0  10000-3 0  9010
2 08820 109.8290 141.0441 0044258 326.7434  33.0520  6.38664565369499
